{
  "type": "FeatureCollection",
  "features": [
    {
      "type": "Feature",
      "properties": {
        "norad_id": 66484,
        "name": "STARLINK-35371",
        "group": "last-30-days",
        "lat": 4.9569729016955355,
        "lon": -89.99799493980879,
        "alt_km": 414.3635068088324,
        "timestamp": "2025-12-08T13:49:30.576241+00:00",
        "meta_object_name": "STARLINK-35371",
        "meta_object_id": "2025-262AE",
        "meta_epoch": "2025-12-08T06:00:02.999808",
        "meta_mean_motion": 15.50565374,
        "meta_eccentricity": 0.00016584,
        "meta_inclination": 43.0004,
        "meta_ra_of_asc_node": 97.2498,
        "meta_arg_of_pericenter": 268.6088,
        "meta_mean_anomaly": 242.0488,
        "meta_ephemeris_type": 0,
        "meta_classification_type": "U",
        "meta_norad_cat_id": 66484,
        "meta_element_set_no": 999,
        "meta_rev_at_epoch": 491,
        "meta_bstar": -0.00023978741,
        "meta_mean_motion_dot": -0.00014376,
        "meta_mean_motion_ddot": 0,
        "tle_line1": "1 66484U 25262AE  25342.25003472 -.00014376  00000+0 -23979-3 0  9999",
        "tle_line2": "2 66484  43.0004  97.2498 0001658 268.6088 242.0488 15.50565374  4911"
      },
      "geometry": {
        "type": "Point",
        "coordinates": [
          -89.99799493980879,
          4.9569729016955355
        ]
      }
    },
    {
      "type": "Feature",
      "properties": {
        "norad_id": 66485,
        "name": "STARLINK-34774",
        "group": "last-30-days",
        "lat": 32.51282932934873,
        "lon": -167.3230953202952,
        "alt_km": 410.58795349709726,
        "timestamp": "2025-12-08T13:49:30.576252+00:00",
        "meta_object_name": "STARLINK-34774",
        "meta_object_id": "2025-263A",
        "meta_epoch": "2025-12-08T06:00:02.999808",
        "meta_mean_motion": 15.5056059,
        "meta_eccentricity": 0.00015213,
        "meta_inclination": 43.0004,
        "meta_ra_of_asc_node": 151.4279,
        "meta_arg_of_pericenter": 276.2464,
        "meta_mean_anomaly": 113.826,
        "meta_ephemeris_type": 0,
        "meta_classification_type": "U",
        "meta_norad_cat_id": 66485,
        "meta_element_set_no": 999,
        "meta_rev_at_epoch": 491,
        "meta_bstar": 0.0002887327,
        "meta_mean_motion_dot": 0.00016622,
        "meta_mean_motion_ddot": 0,
        "tle_line1": "1 66485U 25263A   25342.25003472  .00016622  00000+0  28873-3 0  9993",
        "tle_line2": "2 66485  43.0004 151.4279 0001521 276.2464 113.8260 15.50560590  4912"
      },
      "geometry": {
        "type": "Point",
        "coordinates": [
          -167.3230953202952,
          32.51282932934873
        ]
      }
    },
    {
      "type": "Feature",
      "properties": {
        "norad_id": 66486,
        "name": "STARLINK-34844",
        "group": "last-30-days",
        "lat": 33.45117424709976,
        "lon": -165.3348200687822,
        "alt_km": 410.5708981466014,
        "timestamp": "2025-12-08T13:49:30.576264+00:00",
        "meta_object_name": "STARLINK-34844",
        "meta_object_id": "2025-263B",
        "meta_epoch": "2025-12-08T06:00:02.999808",
        "meta_mean_motion": 15.50572223,
        "meta_eccentricity": 0.00016961,
        "meta_inclination": 43.0005,
        "meta_ra_of_asc_node": 151.4216,
        "meta_arg_of_pericenter": 279.9793,
        "meta_mean_anomaly": 112.0158,
        "meta_ephemeris_type": 0,
        "meta_classification_type": "U",
        "meta_norad_cat_id": 66486,
        "meta_element_set_no": 999,
        "meta_rev_at_epoch": 486,
        "meta_bstar": -0.00070441288,
        "meta_mean_motion_dot": -0.00041439,
        "meta_mean_motion_ddot": 0,
        "tle_line1": "1 66486U 25263B   25342.25003472 -.00041439  00000+0 -70441-3 0  9998",
        "tle_line2": "2 66486  43.0005 151.4216 0001696 279.9793 112.0158 15.50572223  4860"
      },
      "geometry": {
        "type": "Point",
        "coordinates": [
          -165.3348200687822,
          33.45117424709976
        ]
      }
    },
    {
      "type": "Feature",
      "properties": {
        "norad_id": 66487,
        "name": "STARLINK-34733",
        "group": "last-30-days",
        "lat": 34.35617563534486,
        "lon": -163.30175215416946,
        "alt_km": 410.4598870862783,
        "timestamp": "2025-12-08T13:49:30.576274+00:00",
        "meta_object_name": "STARLINK-34733",
        "meta_object_id": "2025-263C",
        "meta_epoch": "2025-12-08T06:00:02.999808",
        "meta_mean_motion": 15.50568399,
        "meta_eccentricity": 0.00016698,
        "meta_inclination": 43.0004,
        "meta_ra_of_asc_node": 151.4185,
        "meta_arg_of_pericenter": 278.6013,
        "meta_mean_anomaly": 115.3116,
        "meta_ephemeris_type": 0,
        "meta_classification_type": "U",
        "meta_norad_cat_id": 66487,
        "meta_element_set_no": 999,
        "meta_rev_at_epoch": 491,
        "meta_bstar": -0.00059876208,
        "meta_mean_motion_dot": -0.00035297,
        "meta_mean_motion_ddot": 0,
        "tle_line1": "1 66487U 25263C   25342.25003472 -.00035297  00000+0 -59876-3 0  9993",
        "tle_line2": "2 66487  43.0004 151.4185 0001669 278.6013 115.3116 15.50568399  4911"
      },
      "geometry": {
        "type": "Point",
        "coordinates": [
          -163.30175215416946,
          34.35617563534486
        ]
      }
    },
    {
      "type": "Feature",
      "properties": {
        "norad_id": 66488,
        "name": "STARLINK-35515",
        "group": "last-30-days",
        "lat": 35.22763162118877,
        "lon": -161.22615174063176,
        "alt_km": 410.31635979705425,
        "timestamp": "2025-12-08T13:49:30.576300+00:00",
        "meta_object_name": "STARLINK-35515",
        "meta_object_id": "2025-263D",
        "meta_epoch": "2025-12-08T06:00:02.999808",
        "meta_mean_motion": 15.50568782,
        "meta_eccentricity": 0.00016139,
        "meta_inclination": 43.0005,
        "meta_ra_of_asc_node": 151.4126,
        "meta_arg_of_pericenter": 278.771,
        "meta_mean_anomaly": 117.0588,
        "meta_ephemeris_type": 0,
        "meta_classification_type": "U",
        "meta_norad_cat_id": 66488,
        "meta_element_set_no": 999,
        "meta_rev_at_epoch": 491,
        "meta_bstar": -0.00060593401,
        "meta_mean_motion_dot": -0.00035714,
        "meta_mean_motion_ddot": 0,
        "tle_line1": "1 66488U 25263D   25342.25003472 -.00035714  00000+0 -60593-3 0  9996",
        "tle_line2": "2 66488  43.0005 151.4126 0001613 278.7710 117.0588 15.50568782  4910"
      },
      "geometry": {
        "type": "Point",
        "coordinates": [
          -161.22615174063176,
          35.22763162118877
        ]
      }
    },
    {
      "type": "Feature",
      "properties": {
        "norad_id": 66489,
        "name": "STARLINK-35696",
        "group": "last-30-days",
        "lat": 36.061905761544445,
        "lon": -159.10641084996712,
        "alt_km": 410.2616310840158,
        "timestamp": "2025-12-08T13:49:30.576313+00:00",
        "meta_object_name": "STARLINK-35696",
        "meta_object_id": "2025-263E",
        "meta_epoch": "2025-12-08T06:00:02.999808",
        "meta_mean_motion": 15.50569197,
        "meta_eccentricity": 0.00017662,
        "meta_inclination": 43.0004,
        "meta_ra_of_asc_node": 151.4082,
        "meta_arg_of_pericenter": 279.9676,
        "meta_mean_anomaly": 117.7742,
        "meta_ephemeris_type": 0,
        "meta_classification_type": "U",
        "meta_norad_cat_id": 66489,
        "meta_element_set_no": 999,
        "meta_rev_at_epoch": 491,
        "meta_bstar": -0.00054910285,
        "meta_mean_motion_dot": -0.00032411,
        "meta_mean_motion_ddot": 0,
        "tle_line1": "1 66489U 25263E   25342.25003472 -.00032411  00000+0 -54910-3 0  9994",
        "tle_line2": "2 66489  43.0004 151.4082 0001766 279.9676 117.7742 15.50569197  4914"
      },
      "geometry": {
        "type": "Point",
        "coordinates": [
          -159.10641084996712,
          36.061905761544445
        ]
      }
    },
    {
      "type": "Feature",
      "properties": {
        "norad_id": 66490,
        "name": "STARLINK-35693",
        "group": "last-30-days",
        "lat": 36.85310386040003,
        "lon": -156.95579556352817,
        "alt_km": 410.04988020777,
        "timestamp": "2025-12-08T13:49:30.576323+00:00",
        "meta_object_name": "STARLINK-35693",
        "meta_object_id": "2025-263F",
        "meta_epoch": "2025-12-08T06:00:02.999808",
        "meta_mean_motion": 15.50502362,
        "meta_eccentricity": 0.00016726,
        "meta_inclination": 43.0003,
        "meta_ra_of_asc_node": 151.4037,
        "meta_arg_of_pericenter": 280.939,
        "meta_mean_anomaly": 118.7368,
        "meta_ephemeris_type": 0,
        "meta_classification_type": "U",
        "meta_norad_cat_id": 66490,
        "meta_element_set_no": 999,
        "meta_rev_at_epoch": 491,
        "meta_bstar": 0.0016155608,
        "meta_mean_motion_dot": 0.00095337,
        "meta_mean_motion_ddot": 0,
        "tle_line1": "1 66490U 25263F   25342.25003472  .00095337  00000+0  16156-2 0  9999",
        "tle_line2": "2 66490  43.0003 151.4037 0001672 280.9390 118.7368 15.50502362  4912"
      },
      "geometry": {
        "type": "Point",
        "coordinates": [
          -156.95579556352817,
          36.85310386040003
        ]
      }
    }
  ]
}